[{"OBJECT_NAME":"FLOCK 4G-5","OBJECT_ID":"2025-009BG","EPOCH":"2026-03-09T10:57:11.608704","MEAN_MOTION":15.28679529,"ECCENTRICITY":0.00020946,"INCLINATION":97.4058,"RA_OF_ASC_NODE":151.2478,"ARG_OF_PERICENTER":314.5072,"MEAN_ANOMALY":45.5996,"EPHEMERIS_TYPE":0,"CLASSIFICATION_TYPE":"U","NORAD_CAT_ID":62663,"ELEMENT_SET_NO":999,"REV_AT_EPOCH":6369,"BSTAR":0.00040688068,"MEAN_MOTION_DOT":0.00011278,"MEAN_MOTION_DDOT":0},{"OBJECT_NAME":"STARLINK-36483","OBJECT_ID":"2026-002AB","EPOCH":"2026-03-09T02:05:19.096512","MEAN_MOTION":15.27577963,"ECCENTRICITY":0.00015101,"INCLINATION":43.0008,"RA_OF_ASC_NODE":328.9343,"ARG_OF_PERICENTER":287.9973,"MEAN_ANOMALY":72.0714,"EPHEMERIS_TYPE":0,"CLASSIFICATION_TYPE":"U","NORAD_CAT_ID":67330,"ELEMENT_SET_NO":999,"REV_AT_EPOCH":1114,"BSTAR":0.0012629296,"MEAN_MOTION_DOT":0.00034652,"MEAN_MOTION_DDOT":0}]
